{
  "type": "FeatureCollection",
  "features": [
    {
      "type": "Feature",
      "properties": {
        "norad_id": 43823,
        "name": "GEO-KOMPSAT-2A",
        "group": "weather",
        "lat": -0.02401710758413989,
        "lon": 24.115557709838235,
        "alt_km": 35785.912849813445,
        "timestamp": "2025-12-14T11:29:49.700115+00:00",
        "meta_object_name": "GEO-KOMPSAT-2A",
        "meta_object_id": "2018-100A",
        "meta_epoch": "2025-12-13T15:46:14.922624",
        "meta_mean_motion": 1.00273445,
        "meta_eccentricity": 4.478e-05,
        "meta_inclination": 0.0446,
        "meta_ra_of_asc_node": 143.3746,
        "meta_arg_of_pericenter": 336.2341,
        "meta_mean_anomaly": 327.8119,
        "meta_ephemeris_type": 0,
        "meta_classification_type": "U",
        "meta_norad_cat_id": 43823,
        "meta_element_set_no": 999,
        "meta_rev_at_epoch": 2576,
        "meta_bstar": 0,
        "meta_mean_motion_dot": -3.28e-06,
        "meta_mean_motion_ddot": 0,
        "tle_line1": "1 43823U 18100A   25347.65711716 -.00000328  00000+0  00000+0 0  9997",
        "tle_line2": "2 43823   0.0446 143.3746 0000447 336.2341 327.8119  1.00273445 25768"
      },
      "geometry": {
        "type": "Point",
        "coordinates": [
          24.115557709838235,
          -0.02401710758413989
        ]
      }
    },
    {
      "type": "Feature",
      "properties": {
        "norad_id": 44387,
        "name": "METEOR-M2 2",
        "group": "weather",
        "lat": -69.8390296600927,
        "lon": -6.515431311661965,
        "alt_km": 818.8845681927978,
        "timestamp": "2025-12-14T11:29:49.700126+00:00",
        "meta_object_name": "METEOR-M2 2",
        "meta_object_id": "2019-038A",
        "meta_epoch": "2025-12-13T15:36:07.440768",
        "meta_mean_motion": 14.24291939,
        "meta_eccentricity": 0.00012867,
        "meta_inclination": 98.8974,
        "meta_ra_of_asc_node": 327.3899,
        "meta_arg_of_pericenter": 144.5572,
        "meta_mean_anomaly": 215.5692,
        "meta_ephemeris_type": 0,
        "meta_classification_type": "U",
        "meta_norad_cat_id": 44387,
        "meta_element_set_no": 999,
        "meta_rev_at_epoch": 33488,
        "meta_bstar": 0.00014609027,
        "meta_mean_motion_dot": 2.92e-06,
        "meta_mean_motion_ddot": 0,
        "tle_line1": "1 44387U 19038A   25347.65008612  .00000292  00000+0  14609-3 0  9991",
        "tle_line2": "2 44387  98.8974 327.3899 0001286 144.5572 215.5692 14.24291939334889"
      },
      "geometry": {
        "type": "Point",
        "coordinates": [
          -6.515431311661965,
          -69.8390296600927
        ]
      }
    },
    {
      "type": "Feature",
      "properties": {
        "norad_id": 47719,
        "name": "ARKTIKA-M 1",
        "group": "weather",
        "lat": 41.30921280869464,
        "lon": -122.57925556626417,
        "alt_km": 20561.70613693257,
        "timestamp": "2025-12-14T11:29:49.700139+00:00",
        "meta_object_name": "ARKTIKA-M 1",
        "meta_object_id": "2021-016A",
        "meta_epoch": "2025-12-09T14:03:23.859648",
        "meta_mean_motion": 2.00631311,
        "meta_eccentricity": 0.7202538,
        "meta_inclination": 63.1769,
        "meta_ra_of_asc_node": 84.4506,
        "meta_arg_of_pericenter": 269.1116,
        "meta_mean_anomaly": 15.6235,
        "meta_ephemeris_type": 0,
        "meta_classification_type": "U",
        "meta_norad_cat_id": 47719,
        "meta_element_set_no": 999,
        "meta_rev_at_epoch": 3498,
        "meta_bstar": 0,
        "meta_mean_motion_dot": -6.1e-07,
        "meta_mean_motion_ddot": 0,
        "tle_line1": "1 47719U 21016A   25343.58569282 -.00000061  00000+0  00000+0 0  9996",
        "tle_line2": "2 47719  63.1769  84.4506 7202538 269.1116  15.6235  2.00631311 34985"
      },
      "geometry": {
        "type": "Point",
        "coordinates": [
          -122.57925556626417,
          41.30921280869464
        ]
      }
    },
    {
      "type": "Feature",
      "properties": {
        "norad_id": 49008,
        "name": "FENGYUN 3E",
        "group": "weather",
        "lat": -39.40001783728187,
        "lon": 161.71332666145364,
        "alt_km": 831.9017786662516,
        "timestamp": "2025-12-14T11:29:49.700155+00:00",
        "meta_object_name": "FENGYUN 3E",
        "meta_object_id": "2021-062A",
        "meta_epoch": "2025-12-13T15:51:40.165056",
        "meta_mean_motion": 14.19878819,
        "meta_eccentricity": 5.362e-05,
        "meta_inclination": 98.748,
        "meta_ra_of_asc_node": 348.171,
        "meta_arg_of_pericenter": 262.3082,
        "meta_mean_anomaly": 97.8033,
        "meta_ephemeris_type": 0,
        "meta_classification_type": "U",
        "meta_norad_cat_id": 49008,
        "meta_element_set_no": 999,
        "meta_rev_at_epoch": 23025,
        "meta_bstar": -7.8544314e-05,
        "meta_mean_motion_dot": -2.11e-06,
        "meta_mean_motion_ddot": 0,
        "tle_line1": "1 49008U 21062A   25347.66088154 -.00000211  00000+0 -78544-4 0  9998",
        "tle_line2": "2 49008  98.7480 348.1710 0000536 262.3082  97.8033 14.19878819230258"
      },
      "geometry": {
        "type": "Point",
        "coordinates": [
          161.71332666145364,
          -39.40001783728187
        ]
      }
    },
    {
      "type": "Feature",
      "properties": {
        "norad_id": 51850,
        "name": "GOES 18",
        "group": "weather",
        "lat": 0.0013232902965420279,
        "lon": 118.85824670497126,
        "alt_km": 35788.23339700723,
        "timestamp": "2025-12-14T11:29:49.700167+00:00",
        "meta_object_name": "GOES 18",
        "meta_object_id": "2022-021A",
        "meta_epoch": "2025-12-13T14:30:37.166976",
        "meta_mean_motion": 1.00273224,
        "meta_eccentricity": 6.711e-05,
        "meta_inclination": 0.0132,
        "meta_ra_of_asc_node": 218.5948,
        "meta_arg_of_pericenter": 100.9358,
        "meta_mean_anomaly": 203.6651,
        "meta_ephemeris_type": 0,
        "meta_classification_type": "U",
        "meta_norad_cat_id": 51850,
        "meta_element_set_no": 999,
        "meta_rev_at_epoch": 473,
        "meta_bstar": 0,
        "meta_mean_motion_dot": 1.12e-06,
        "meta_mean_motion_ddot": 0,
        "tle_line1": "1 51850U 22021A   25347.60459684  .00000112  00000+0  00000+0 0  9991",
        "tle_line2": "2 51850   0.0132 218.5948 0000671 100.9358 203.6651  1.00273224  4732"
      },
      "geometry": {
        "type": "Point",
        "coordinates": [
          118.85824670497126,
          0.0013232902965420279
        ]
      }
    },
    {
      "type": "Feature",
      "properties": {
        "norad_id": 54234,
        "name": "NOAA 21 (JPSS-2)",
        "group": "weather",
        "lat": -43.49773937675075,
        "lon": 96.36580025709483,
        "alt_km": 835.132232417267,
        "timestamp": "2025-12-14T11:29:49.700181+00:00",
        "meta_object_name": "NOAA 21 (JPSS-2)",
        "meta_object_id": "2022-150A",
        "meta_epoch": "2025-12-13T15:50:12.014592",
        "meta_mean_motion": 14.19524674,
        "meta_eccentricity": 0.00021905,
        "meta_inclination": 98.7462,
        "meta_ra_of_asc_node": 283.9566,
        "meta_arg_of_pericenter": 36.4289,
        "meta_mean_anomaly": 323.7035,
        "meta_ephemeris_type": 0,
        "meta_classification_type": "U",
        "meta_norad_cat_id": 54234,
        "meta_element_set_no": 999,
        "meta_rev_at_epoch": 16022,
        "meta_bstar": 9.6958678e-05,
        "meta_mean_motion_dot": 1.6e-06,
        "meta_mean_motion_ddot": 0,
        "tle_line1": "1 54234U 22150A   25347.65986128  .00000160  00000+0  96959-4 0  9992",
        "tle_line2": "2 54234  98.7462 283.9566 0002190  36.4289 323.7035 14.19524674160226"
      },
      "geometry": {
        "type": "Point",
        "coordinates": [
          96.36580025709483,
          -43.49773937675075
        ]
      }
    },
    {
      "type": "Feature",
      "properties": {
        "norad_id": 54743,
        "name": "METEOSAT-12 (MTG-I1)",
        "group": "weather",
        "lat": -0.5613500105162724,
        "lon": -104.42919065329936,
        "alt_km": 35779.75506087153,
        "timestamp": "2025-12-14T11:29:49.700230+00:00",
        "meta_object_name": "METEOSAT-12 (MTG-I1)",
        "meta_object_id": "2022-170C",
        "meta_epoch": "2025-12-13T15:09:40.925952",
        "meta_mean_motion": 1.00269264,
        "meta_eccentricity": 0.00016797,
        "meta_inclination": 0.6877,
        "meta_ra_of_asc_node": 23.7583,
        "meta_arg_of_pericenter": 237.9177,
        "meta_mean_anomaly": 48.0433,
        "meta_ephemeris_type": 0,
        "meta_classification_type": "U",
        "meta_norad_cat_id": 54743,
        "meta_element_set_no": 999,
        "meta_rev_at_epoch": 1111,
        "meta_bstar": 0,
        "meta_mean_motion_dot": 8e-08,
        "meta_mean_motion_ddot": 0,
        "tle_line1": "1 54743U 22170C   25347.63172368  .00000008  00000+0  00000+0 0  9998",
        "tle_line2": "2 54743   0.6877  23.7583 0001679 237.9177  48.0433  1.00269264 11116"
      },
      "geometry": {
        "type": "Point",
        "coordinates": [
          -104.42919065329936,
          -0.5613500105162724
        ]
      }
    }
  ]
}